[{"OBJECT_NAME":"STARLINK-2135","OBJECT_ID":"2021-005BM","EPOCH":"2026-03-09T06:41:25.174176","MEAN_MOTION":15.06388595,"ECCENTRICITY":0.00014279,"INCLINATION":53.0558,"RA_OF_ASC_NODE":33.4642,"ARG_OF_PERICENTER":97.2459,"MEAN_ANOMALY":262.8693,"EPHEMERIS_TYPE":0,"CLASSIFICATION_TYPE":"U","NORAD_CAT_ID":47408,"ELEMENT_SET_NO":999,"REV_AT_EPOCH":28340,"BSTAR":6.4833365e-5,"MEAN_MOTION_DOT":6.84e-6,"MEAN_MOTION_DDOT":0},{"OBJECT_NAME":"FENGYUN 1C DEB","OBJECT_ID":"1999-025AJJ","EPOCH":"2026-03-09T18:40:58.380672","MEAN_MOTION":15.18672988,"ECCENTRICITY":0.00638575,"INCLINATION":98.7226,"RA_OF_ASC_NODE":259.4919,"ARG_OF_PERICENTER":168.3626,"MEAN_ANOMALY":191.9098,"EPHEMERIS_TYPE":0,"CLASSIFICATION_TYPE":"U","NORAD_CAT_ID":30520,"ELEMENT_SET_NO":999,"REV_AT_EPOCH":2360,"BSTAR":0.0014000942,"MEAN_MOTION_DOT":0.0003064,"MEAN_MOTION_DDOT":0}]
